[
    {
        "Altitude(m)": 703681.8375291264,
        "Argument of Periapsis(deg)": 0.0022780242373254137,
        "Eccentricity": 0.0,
        "Inclination(deg)": 45.0,
        "Latitude(deg)": -1.7028397771869062,
        "Longitude(deg)": -73.43586473615345,
        "Mean Anomaly(deg)": -177.69335667050385,
        "RAAN(deg)": 204.99784961170835,
        "Satellite Name": "Constellation 1 913",
        "Satellite Number": 913,
        "Semi-Major Axis(m)": 7083131.272910544,
        "Time(s)": 38
    },
    {
        "Altitude(m)": 703688.2613379263,
        "Argument of Periapsis(deg)": 0.002337972243570819,
        "Eccentricity": 0.0,
        "Inclination(deg)": 45.0,
        "Latitude(deg)": -1.746032803222796,
        "Longitude(deg)": -73.39708021672132,
        "Mean Anomaly(deg)": -177.63265553025397,
        "RAAN(deg)": 204.99779302254277,
        "Satellite Name": "Constellation 1 913",
        "Satellite Number": 913,
        "Semi-Major Axis(m)": 7083131.272910544,
        "Time(s)": 39
    },
    {
        "Altitude(m)": 703694.7054514594,
        "Argument of Periapsis(deg)": 0.0023979202498162246,
        "Eccentricity": 0.0,
        "Inclination(deg)": 45.0,
        "Latitude(deg)": -1.7892247520124454,
        "Longitude(deg)": -73.35829381275637,
        "Mean Anomaly(deg)": -177.57195439000404,
        "RAAN(deg)": 204.9977364333772,
        "Satellite Name": "Constellation 1 913",
        "Satellite Number": 913,
        "Semi-Major Axis(m)": 7083131.272910544,
        "Time(s)": 40
    },
    {
        "Altitude(m)": 703701.1698594986,
        "Argument of Periapsis(deg)": 0.00245786825606163,
        "Eccentricity": 0.0,
        "Inclination(deg)": 45.0,
        "Latitude(deg)": -1.83241559855677,
        "Longitude(deg)": -73.31950547588619,
        "Mean Anomaly(deg)": -177.51125324975416,
        "RAAN(deg)": 204.99767984421166,
        "Satellite Name": "Constellation 1 913",
        "Satellite Number": 913,
        "Semi-Major Axis(m)": 7083131.272910544,
        "Time(s)": 41
    },
    {
        "Altitude(m)": 703707.6545517372,
        "Argument of Periapsis(deg)": 0.002517816262307036,
        "Eccentricity": 0.0,
        "Inclination(deg)": 45.0,
        "Latitude(deg)": -1.8756053178535834,
        "Longitude(deg)": -73.28071515773398,
        "Mean Anomaly(deg)": -177.45055210950423,
        "RAAN(deg)": 204.99762325504605,
        "Satellite Name": "Constellation 1 913",
        "Satellite Number": 913,
        "Semi-Major Axis(m)": 7083131.272910544,
        "Time(s)": 42
    },
    {
        "Altitude(m)": 703714.1595177597,
        "Argument of Periapsis(deg)": 0.0025777642685524413,
        "Eccentricity": 0.0,
        "Inclination(deg)": 45.0,
        "Latitude(deg)": -1.9187938848968735,
        "Longitude(deg)": -73.24192280991896,
        "Mean Anomaly(deg)": -177.38985096925435,
        "RAAN(deg)": 204.9975666658805,
        "Satellite Name": "Constellation 1 913",
        "Satellite Number": 913,
        "Semi-Major Axis(m)": 7083131.272910544,
        "Time(s)": 43
    },
    {
        "Altitude(m)": 703720.6847470726,
        "Argument of Periapsis(deg)": 0.002637712274797847,
        "Eccentricity": 0.0,
        "Inclination(deg)": 45.0,
        "Latitude(deg)": -1.961981274677206,
        "Longitude(deg)": -73.20312855215306,
        "Mean Anomaly(deg)": -177.32914982900442,
        "RAAN(deg)": 204.99751007671492,
        "Satellite Name": "Constellation 1 913",
        "Satellite Number": 913,
        "Semi-Major Axis(m)": 7083131.272910544,
        "Time(s)": 44
    },
    {
        "Altitude(m)": 703727.2302290822,
        "Argument of Periapsis(deg)": 0.0026976602810432526,
        "Eccentricity": 0.0,
        "Inclination(deg)": 45.0,
        "Latitude(deg)": -2.005167462181259,
        "Longitude(deg)": -73.1643319998525,
        "Mean Anomaly(deg)": -177.26844868875452,
        "RAAN(deg)": 204.99745348754936,
        "Satellite Name": "Constellation 1 913",
        "Satellite Number": 913,
        "Semi-Major Axis(m)": 7083131.272910544,
        "Time(s)": 45
    },
    {
        "Altitude(m)": 703733.7959531002,
        "Argument of Periapsis(deg)": 0.0027576082872886585,
        "Eccentricity": 0.0,
        "Inclination(deg)": 45.0,
        "Latitude(deg)": -2.0483524223920195,
        "Longitude(deg)": -73.1255332727203,
        "Mean Anomaly(deg)": -177.20774754850467,
        "RAAN(deg)": 204.9973968983838,
        "Satellite Name": "Constellation 1 913",
        "Satellite Number": 913,
        "Semi-Major Axis(m)": 7083131.272910544,
        "Time(s)": 46
    },
    {
        "Altitude(m)": 703740.38190835,
        "Argument of Periapsis(deg)": 0.0028175562935340644,
        "Eccentricity": 0.0,
        "Inclination(deg)": 45.0,
        "Latitude(deg)": -2.091536130288589,
        "Longitude(deg)": -73.08673232235776,
        "Mean Anomaly(deg)": -177.14704640825477,
        "RAAN(deg)": 204.9973403092182,
        "Satellite Name": "Constellation 1 913",
        "Satellite Number": 913,
        "Semi-Major Axis(m)": 7083131.272910544,
        "Time(s)": 47
    },
    {
        "Altitude(m)": 703746.9880839566,
        "Argument of Periapsis(deg)": 0.00287750429977947,
        "Eccentricity": 0.0,
        "Inclination(deg)": 45.0,
        "Latitude(deg)": -2.1347185608459625,
        "Longitude(deg)": -73.04792910036143,
        "Mean Anomaly(deg)": -177.08634526800483,
        "RAAN(deg)": 204.99728372005265,
        "Satellite Name": "Constellation 1 913",
        "Satellite Number": 913,
        "Semi-Major Axis(m)": 7083131.272910544,
        "Time(s)": 48
    },
    {
        "Altitude(m)": 703753.6144689652,
        "Argument of Periapsis(deg)": 0.002937452306024875,
        "Eccentricity": 0.0,
        "Inclination(deg)": 45.0,
        "Latitude(deg)": -2.177899689035209,
        "Longitude(deg)": -73.00912355832287,
        "Mean Anomaly(deg)": -177.02564412775496,
        "RAAN(deg)": 204.9972271308871,
        "Satellite Name": "Constellation 1 913",
        "Satellite Number": 913,
        "Semi-Major Axis(m)": 7083131.272910544,
        "Time(s)": 49
    },
    {
        "Altitude(m)": 703760.2610523113,
        "Argument of Periapsis(deg)": 0.0029974003122702807,
        "Eccentricity": 0.0,
        "Inclination(deg)": 45.0,
        "Latitude(deg)": -2.22107948982309,
        "Longitude(deg)": -72.970315647829,
        "Mean Anomaly(deg)": -176.96494298750503,
        "RAAN(deg)": 204.99717054172152,
        "Satellite Name": "Constellation 1 913",
        "Satellite Number": 913,
        "Semi-Major Axis(m)": 7083131.272910544,
        "Time(s)": 50
    },
    {
        "Altitude(m)": 703766.9278228503,
        "Argument of Periapsis(deg)": 0.0030573483185156866,
        "Eccentricity": 0.0,
        "Inclination(deg)": 45.0,
        "Latitude(deg)": -2.2642579381721752,
        "Longitude(deg)": -72.93150532046137,
        "Mean Anomaly(deg)": -176.90424184725518,
        "RAAN(deg)": 204.99711395255596,
        "Satellite Name": "Constellation 1 913",
        "Satellite Number": 913,
        "Semi-Major Axis(m)": 7083131.272910544,
        "Time(s)": 51
    },
    {
        "Altitude(m)": 703773.614769335,
        "Argument of Periapsis(deg)": 0.003117296324761092,
        "Eccentricity": 0.0,
        "Inclination(deg)": 45.0,
        "Latitude(deg)": -2.307435009040745,
        "Longitude(deg)": -72.89269269589357,
        "Mean Anomaly(deg)": -176.84354070700525,
        "RAAN(deg)": 204.99705736339038,
        "Satellite Name": "Constellation 1 913",
        "Satellite Number": 913,
        "Semi-Major Axis(m)": 7083131.272910544,
        "Time(s)": 52
    },
    {
        "Altitude(m)": 703780.321880436,
        "Argument of Periapsis(deg)": 0.0031772443310064975,
        "Eccentricity": 0.0,
        "Inclination(deg)": 45.0,
        "Latitude(deg)": -2.350610677382409,
        "Longitude(deg)": -72.85387738950271,
        "Mean Anomaly(deg)": -176.78283956675537,
        "RAAN(deg)": 204.99700077422483,
        "Satellite Name": "Constellation 1 913",
        "Satellite Number": 913,
        "Semi-Major Axis(m)": 7083131.272910544,
        "Time(s)": 53
    },
    {
        "Altitude(m)": 703787.04914473,
        "Argument of Periapsis(deg)": 0.0032371923372519038,
        "Eccentricity": 0.0,
        "Inclination(deg)": 45.0,
        "Latitude(deg)": -2.393784918146467,
        "Longitude(deg)": -72.81505952095178,
        "Mean Anomaly(deg)": -176.72213842650544,
        "RAAN(deg)": 204.99694418505925,
        "Satellite Name": "Constellation 1 913",
        "Satellite Number": 913,
        "Semi-Major Axis(m)": 7083131.272910544,
        "Time(s)": 54
    },
    {
        "Altitude(m)": 703793.7965506879,
        "Argument of Periapsis(deg)": 0.0032971403434973088,
        "Eccentricity": 0.0,
        "Inclination(deg)": 45.0,
        "Latitude(deg)": -2.436957706277441,
        "Longitude(deg)": -72.77623904180113,
        "Mean Anomaly(deg)": -176.66143728625556,
        "RAAN(deg)": 204.99688759589367,
        "Satellite Name": "Constellation 1 913",
        "Satellite Number": 913,
        "Semi-Major Axis(m)": 7083131.272910544,
        "Time(s)": 55
    },
    {
        "Altitude(m)": 703800.5640867051,
        "Argument of Periapsis(deg)": 0.0033570883497427146,
        "Eccentricity": 0.0,
        "Inclination(deg)": 45.0,
        "Latitude(deg)": -2.480129016715309,
        "Longitude(deg)": -72.73741590360545,
        "Mean Anomaly(deg)": -176.60073614600566,
        "RAAN(deg)": 204.99683100672812,
        "Satellite Name": "Constellation 1 913",
        "Satellite Number": 913,
        "Semi-Major Axis(m)": 7083131.272910544,
        "Time(s)": 56
    }
]